NORAD_CAT_ID,OBJECT_NAME,OBJECT_TYPE,EPOCH,MEAN_MOTION,ECCENTRICITY,INCLINATION,RA_OF_ASC_NODE,ARG_OF_PERICENTER,MEAN_ANOMALY,BSTAR,MEAN_MOTION_DOT,MEAN_MOTION_DDOT,TLE_LINE0,TLE_LINE1,TLE_LINE2,SEMIMAJOR_AXIS,PERIOD,APOGEE,PERIGEE,DECAYED
53018.0,STARLINK-4279,PAYLOAD,2022-10-02 22:00:00,15.16640244,0.0001626,53.2174,312.6309,39.1933,347.8313,-0.058523,-0.01073437,0.0,0 STARLINK-4279,1 53018U 22076AJ  22275.91667824 -.01073437  00000-0 -58523-1 0  9996,2 53018  53.2174 312.6309 0001626  39.1933 347.8313 15.16640244  1304,6894.14,94.947,517.126,514.884,0.0
53018.0,STARLINK-4279,PAYLOAD,2022-10-03 14:00:01,15.15121335,0.0001769,53.2172,309.6031,37.6622,29.4644,-0.061063,-0.01072493,0.0,0 STARLINK-4279,1 53018U 22076AJ  22276.58334491 -.01072493  00000-0 -61063-1 0  9995,2 53018  53.2172 309.6031 0001769  37.6622  29.4644 15.15121335  1300,6898.746999999999,95.042,521.8330000000002,519.3919999999998,0.0
53018.0,STARLINK-4279,PAYLOAD,2022-10-03 22:00:00,15.1436367,0.0001981,53.2175,308.0904,33.7477,52.0614,-0.062628,-0.01076282,0.0,0 STARLINK-4279,1 53018U 22076AJ  22276.91667824 -.01076282  00000-0 -62628-1 0  9999,2 53018  53.2175 308.0904 0001981  33.7477  52.0614 15.14363670  1304,6901.0480000000025,95.089,524.28,521.5459999999998,0.0
53018.0,STARLINK-4279,PAYLOAD,2022-10-04 14:00:01,15.12839257,0.0001955999999999,53.217,305.0734,38.3851,82.0522,-0.064776,-0.01066986,0.0,0 STARLINK-4279,1 53018U 22076AJ  22277.58334491 -.01066986  00000-0 -64776-1 0  9990,2 53018  53.2170 305.0734 0001956  38.3851  82.0522 15.12839257  1304,6905.683000000001,95.185,528.899,526.197,0.0
53018.0,STARLINK-4279,PAYLOAD,2022-10-04 22:00:00,15.1208233,0.0001859,53.2174,303.5637,41.7815,94.6016,-0.0665029999999999,-0.01071988,0.0,0 STARLINK-4279,1 53018U 22076AJ  22277.91667824 -.01071988  00000-0 -66503-1 0  9994,2 53018  53.2174 303.5637 0001859  41.7815  94.6016 15.12082330 14485,6907.988,95.233,531.137,528.568,0.0
53018.0,STARLINK-4279,PAYLOAD,2022-10-05 14:00:01,15.10564062,0.0002011,53.2172,300.5564,37.2382,128.3579,-0.06938,-0.01071998,0.0,0 STARLINK-4279,1 53018U 22076AJ  22278.58335648 -.01071998  00000-0 -69380-1 0  9991,2 53018  53.2172 300.5564 0002011  37.2382 128.3579 15.10564062  1300,6912.616,95.329,535.871,533.091,0.0
53018.0,STARLINK-4279,PAYLOAD,2022-10-05 22:00:00,15.097193099999998,0.0001881,53.2174,299.0538,34.1139,144.6436,-0.056076,-0.00850778,0.0,0 STARLINK-4279,1 53018U 22076AJ  22278.91667824 -.00850778  00000-0 -56076-1 0  9990,2 53018  53.2174 299.0538 0001881  34.1139 144.6436 15.09719310  1304,6915.194,95.382,538.36,535.758,0.0
53018.0,STARLINK-4279,PAYLOAD,2022-10-06 06:00:00,15.09026381,0.0001706999999999,53.2176,297.5574,37.7831,153.2583,-0.018234,-0.00280788,0.0,0 STARLINK-4279,1 53018U 22076AJ  22279.25001157 -.00280788  00000-0 -18234-1 0  9991,2 53018  53.2176 297.5574 0001707  37.7831 153.2583 15.09026381 14687,6917.311,95.426,540.357,537.995,0.0
53018.0,STARLINK-4279,PAYLOAD,2022-10-06 14:00:01,15.0887099,0.0002077,53.2167,296.0702,41.3276,161.3647,0.0014014,0.00022105,0.0,0 STARLINK-4279,1 53018U 22076AJ  22279.58334491  .00022105  00000-0  14014-2 0  9995,2 53018  53.2167 296.0702 0002077  41.3276 161.3647 15.08870990  1307,6917.786,95.436,541.087,538.214,0.0
53018.0,STARLINK-4279,PAYLOAD,2022-10-06 22:42:55,15.08879398,0.0001865999999999,53.2166,294.4383,47.8772,328.3771,0.0006605,0.00010251,0.0,0 STARLINK-4279,1 53018U 22076AJ  22279.94646991  .00010251  00000-0  66050-3 0  9993,2 53018  53.2166 294.4383 0001866  47.8772 328.3771 15.08879398  1304,6917.76,95.435,540.9159999999998,538.3340000000002,0.0
53018.0,STARLINK-4279,PAYLOAD,2022-10-07 00:00:00,15.08895155,0.0001863,53.2168,294.1979,48.9136,258.332,-0.0014959,-0.00024053,0.0,0 STARLINK-4279,1 53018U 22076AJ  22280.00001157 -.00024053  00000-0 -14959-2 0  9998,2 53018  53.2168 294.1979 0001863  48.9136 258.3320 15.08895155 14795,6917.712,95.434,540.866,538.288,0.0
53018.0,STARLINK-4279,PAYLOAD,2022-10-07 06:00:00,15.08872349,0.0001956999999999,53.2166,293.077,45.6156,180.349,-0.004591,-0.00072683,0.0,0 STARLINK-4279,1 53018U 22076AJ  22280.25001157 -.00072683  00000-0 -45910-2 0  9998,2 53018  53.2166 293.0770 0001957  45.6156 180.3490 15.08872349 14837,6917.781999999997,95.436,541.0,538.293,0.0
53018.0,STARLINK-4279,PAYLOAD,2022-10-07 14:00:01,15.08830353,0.000198,53.2161,291.5808,41.8014,195.7621,0.00069747,0.00010827,0.0,0 STARLINK-4279,1 53018U 22076AJ  22280.58334491  .00010827  00000-0  69747-3 0  9999,2 53018  53.2161 291.5808 0001980  41.8014 195.7621 15.08830353  1307,6917.91,95.438,541.145,538.405,0.0
53018.0,STARLINK-4279,PAYLOAD,2022-10-07 22:00:00,15.08825178,0.0001761,53.216,290.0827,46.9533,202.206,0.00076595,0.00011918,0.0,0 STARLINK-4279,1 53018U 22076AJ  22280.91667824  .00011918  00000-0  76595-3 0  9996,2 53018  53.2160 290.0827 0001761  46.9533 202.2060 15.08825178 14933,6917.926,95.438,541.009,538.572,0.0
53018.0,STARLINK-4279,PAYLOAD,2022-10-08 14:00:01,15.08841139,0.0001872,53.2154,287.0914,40.3531,231.974,-0.0017045,-0.00027314,0.0,0 STARLINK-4279,1 53018U 22076AJ  22281.58334491 -.00027314  00000-0 -17045-2 0  9994,2 53018  53.2154 287.0914 0001872  40.3531 231.9740 15.08841139  1304,6917.877,95.437,541.0369999999998,538.447,0.0
53018.0,STARLINK-4279,PAYLOAD,2022-10-08 22:00:00,15.08807665,0.0001675,53.2154,285.5933,45.7671,238.1477,0.0032405,0.00051617,0.0,0 STARLINK-4279,1 53018U 22076AJ  22281.91667824  .00051617  00000-0  32405-2 0  9998,2 53018  53.2154 285.5933 0001675  45.7671 238.1477 15.08807665  1305,6917.979,95.44,541.003,538.685,0.0
53018.0,STARLINK-4279,PAYLOAD,2022-10-09 14:00:01,15.08840847,0.0001817,53.2153,282.6018,39.2949,267.7807,-0.00014887,-2.657e-05,0.0,0 STARLINK-4279,1 53018U 22076AJ  22282.58334491 -.00002657  00000-0 -14887-3 0  9990,2 53018  53.2153 282.6018 0001817  39.2949 267.7807 15.08840847 15185,6917.878000000002,95.438,541.0,538.486,0.0
53018.0,STARLINK-4279,PAYLOAD,2022-10-09 22:00:00,15.08831463,0.000174,53.2154,281.1037,47.3016,271.3745,0.00088389,0.00013804,0.0,0 STARLINK-4279,1 53018U 22076AJ  22282.91667824  .00013804  00000-0  88389-3 0  9998,2 53018  53.2154 281.1037 0001740  47.3016 271.3745 15.08831463  1306,6917.906,95.438,540.975,538.568,0.0
53018.0,STARLINK-4279,PAYLOAD,2022-10-10 14:00:01,15.08874111,0.0001906,53.2161,278.1084,40.549,301.309,-0.0064188999999999,-0.00101111,0.0,0 STARLINK-4279,1 53018U 22076AJ  22283.58334491 -.00101111  00000-0 -64189-2 0  9995,2 53018  53.2161 278.1084 0001906  40.5490 301.3090 15.08874111  1301,6917.776,95.435,540.96,538.323,0.0
53018.0,STARLINK-4279,PAYLOAD,2022-10-10 22:00:01,15.08798126,0.0001791,53.2168,276.6074,40.4291,313.087,0.0036356,0.00057982,0.0,0 STARLINK-4279,1 53018U 22076AJ  22283.91668981  .00057982  00000-0  36356-2 0  9995,2 53018  53.2168 276.6074 0001791  40.4291 313.0870 15.08798126  1307,6918.0080000000025,95.44,541.112,538.634,0.0
53018.0,STARLINK-4279,PAYLOAD,2022-10-11 14:00:01,15.08822053,0.0001571999999999,53.2167,273.6154,43.6973,332.9267,0.0013955,0.0002198,0.0,0 STARLINK-4279,1 53018U 22076AJ  22284.58334491  .00021980  00000-0  13955-2 0  9994,2 53018  53.2167 273.6154 0001572  43.6973 332.9267 15.08822053 15482,6917.935,95.439,540.888,538.7130000000002,0.0
53018.0,STARLINK-4279,PAYLOAD,2022-10-11 22:00:00,15.0880858,0.0001663,53.2167,272.1248,44.3891,343.773,0.0035524,0.00056654,0.0,0 STARLINK-4279,1 53018U 22076AJ  22284.91667824  .00056654  00000-0  35524-2 0  9992,2 53018  53.2167 272.1248 0001663  44.3891 343.7730 15.08808580 15538,6917.976,95.44,540.992,538.691,0.0
53018.0,STARLINK-4279,PAYLOAD,2022-10-12 14:00:01,15.0887454,0.0001865999999999,53.2168,269.1296,39.6203,11.7378,-0.0025350999999999,-0.00040447,0.0,0 STARLINK-4279,1 53018U 22076AJ  22285.58334491 -.00040447  00000-0 -25351-2 0  9999,2 53018  53.2168 269.1296 0001866  39.6203  11.7378 15.08874540 15637,6917.775,95.435,540.931,538.349,0.0
53018.0,STARLINK-4279,PAYLOAD,2022-10-12 22:00:00,15.08843819,0.0001771999999999,53.2171,267.6288,47.9091,15.0727,-0.0006355,-0.00010389,0.0,0 STARLINK-4279,1 53018U 22076AJ  22285.91667824 -.00010389  00000-0 -63550-3 0  9991,2 53018  53.2171 267.6288 0001772  47.9091  15.0727 15.08843819  1307,6917.869000000002,95.437,540.96,538.508,0.0
53018.0,STARLINK-4279,PAYLOAD,2022-10-13 14:00:01,15.08895154,0.0001646,53.2171,264.6379,43.6366,42.4958,-0.0049636,-0.00078542,0.0,0 STARLINK-4279,1 53018U 22076AJ  22286.58334491 -.00078542  00000-0 -49636-2 0  9999,2 53018  53.2171 264.6379 0001646  43.6366  42.4958 15.08895154  1302,6917.712,95.434,540.715,538.438,0.0
53018.0,STARLINK-4279,PAYLOAD,2022-10-13 20:00:01,15.08833619,0.0001465,53.2173,263.5121,50.2062,314.7237,0.00033159,4.992e-05,0.0,0 STARLINK-4279,1 53018U 22076AJ  22286.83335648  .00004992  00000-0  33159-3 0  9992,2 53018  53.2173 263.5121 0001465  50.2062 314.7237 15.08833619 15828,6917.9,95.438,540.778,538.751,0.0
53018.0,STARLINK-4279,PAYLOAD,2022-10-13 22:00:00,15.08836334,0.0001506,53.2175,263.1378,51.8713,45.8924,7.8273e-05,9.58e-06,0.0,0 STARLINK-4279,1 53018U 22076AJ  22286.91667824  .00000958  00000-0  78273-4 0  9990,2 53018  53.2175 263.1378 0001506  51.8713  45.8924 15.08836334  1306,6917.892,95.438,540.798,538.715,0.0
53018.0,STARLINK-4279,PAYLOAD,2022-10-14 14:00:01,15.08778723,0.0001515,53.2171,260.1479,44.4214,76.5563,0.0055281,0.00088651,0.0,0 STARLINK-4279,1 53018U 22076AJ  22287.58334491  .00088651  00000-0  55281-2 0  9993,2 53018  53.2171 260.1479 0001515  44.4214  76.5563 15.08778723  1302,6918.068,95.441,540.981,538.885,0.0
53018.0,STARLINK-4279,PAYLOAD,2022-10-14 20:00:01,15.08834571,0.0001355,53.2173,259.0228,47.9832,351.6602,0.00022749,3.334e-05,0.0,0 STARLINK-4279,1 53018U 22076AJ  22287.83334491  .00003334  00000-0  22749-3 0  9990,2 53018  53.2173 259.0228 0001355  47.9832 351.6602 15.08834571  1304,6917.897,95.438,540.6990000000002,538.825,0.0
